ION SCV-017             
1 63230U 25052W   26068.71648816  .00006457  00000+0  24539-3 0  9998
2 63230  97.4016 324.7516 0023746  44.9875 315.3282 15.26881798 54851
STARLINK-34401          
1 64757U 25147C   26068.73181365  .00018918  00000+0  64941-3 0  9997
2 64757  53.1596 242.8826 0001061  53.5782 306.5317 15.30191190 38680
